[{"OBJECT_NAME":"STARLINK-31535","OBJECT_ID":"2024-071W","EPOCH":"2026-03-08T04:06:55.284480","MEAN_MOTION":15.27545379,"ECCENTRICITY":0.00013683,"INCLINATION":43.0082,"RA_OF_ASC_NODE":356.0805,"ARG_OF_PERICENTER":284.5598,"MEAN_ANOMALY":75.5102,"EPHEMERIS_TYPE":0,"CLASSIFICATION_TYPE":"U","NORAD_CAT_ID":59504,"ELEMENT_SET_NO":999,"REV_AT_EPOCH":10788,"BSTAR":0.00042257741,"MEAN_MOTION_DOT":0.00011372,"MEAN_MOTION_DDOT":0},{"OBJECT_NAME":"TRANSPORTER-1 OBJECT Z","OBJECT_ID":"2021-006Z","EPOCH":"2026-03-09T22:55:57.522432","MEAN_MOTION":15.30965056,"ECCENTRICITY":0.00100878,"INCLINATION":97.2377,"RA_OF_ASC_NODE":113.4736,"ARG_OF_PERICENTER":179.6869,"MEAN_ANOMALY":180.438,"EPHEMERIS_TYPE":0,"CLASSIFICATION_TYPE":"U","NORAD_CAT_ID":47436,"ELEMENT_SET_NO":999,"REV_AT_EPOCH":28420,"BSTAR":0.00024088983,"MEAN_MOTION_DOT":7.143e-5,"MEAN_MOTION_DDOT":0}]
